73P-BY/Schwassmann-Wachmann,e,11.1826,199.3863,69.6890,3.032174,0.1866693,0.68210079,96.6814,01/25.0/2024,2000,g 17.4,4.0
# From MPEC 2024-B57
74P/Smirnova-Chernykh,e,6.4942,53.6676,129.0522,4.816275,0.0932475,0.04445239,218.1718,01/25.0/2024,2000,g  5.0,6.0
# From CCO 7
75D/Kohoutek,e,5.9246,269.5548,175.5459,3.537550,0.1481325,0.49924630,155.9904,01/25.0/2024,2000,g  9.5,6.0
# From MPEC 2022-K19
76P/West-Kohoutek-Ikemura,e,30.4856,84.1092,359.9482,3.469307,0.1525246,0.53921453,236.5184,01/25.0/2024,2000,g  8.0,12.0
# From MPEC 2023-TM6
77P/Longmore,e,24.3184,14.7642,196.6937,3.622540,0.1429501,0.35170388,42.4575,01/25.0/2024,2000,g  7.0,8.0
# From MPEC 2021-O56
78P/Gehrels,e,6.2569,210.5314,192.6783,3.735747,0.1365017,0.46316075,239.6168,01/25.0/2024,2000,g  5.5,8.0
# From MPC 94675
79P/du Toit-Hartley,e,3.1488,281.7710,280.5299,2.944022,0.1951158,0.61922301,22.7594,01/25.0/2024,2000,g 16.0,4.0
# From MPEC 2023-RF3
80P/Peters-Hartley,e,29.9232,259.7872,339.2651,4.022749,0.1221574,0.59830573,50.3526,01/25.0/2024,2000,g  9.0,8.0
# From MPEC 2024-B57
81P/Wild,e,3.2367,136.0939,41.5961,3.453064,0.1536021,0.53725416,62.2733,01/25.0/2024,2000,g  7.0,6.0
# From MPC133426
82P/Gehrels,e,1.1291,239.2372,226.4094,4.132379,0.1173286,0.12239127,239.6071,01/25.0/2024,2000,g 15.0,4.0
# From NK 932
83D/Russell,e,17.8257,226.3075,334.4378,3.843956,0.1307785,0.44142310,127.8222,01/25.0/2024,2000,g  9.0,4.0
# From MPEC 2020-FB5
84P/Giclas,e,7.5510,108.1651,281.6401,3.550082,0.1473488,0.51605263,195.8507,01/25.0/2024,2000,g  9.5,8.0
# From unp
85D/Boethin,e,4.1742,65.2841,333.0668,5.043821,0.0870091,0.77631763,110.8269,01/25.0/2024,2000,g  6.5,8.0
# From MPEC 2022-YB4
86P/Wild,e,15.5043,72.1510,180.3205,3.618659,0.1431801,0.37135266,102.3980,01/25.0/2024,2000,g 11.0,6.0
# From MPEC 2020-SI8
87P/Bus,e,2.7668,187.3534,50.5124,4.256458,0.1122358,0.24632773,152.3165,01/25.0/2024,2000,g  7.2,10.0
# From MPEC 2023-J29
88P/Howell,e,4.3819,56.6655,235.9236,3.107062,0.1799613,0.56326939,218.9275,01/25.0/2024,2000,g 11.0,6.0
# From MPEC 2023-J29
89P/Russell,e,12.0721,41.3461,250.4006,3.752035,0.1356137,0.40783000,351.6455,01/25.0/2024,2000,g 11.5,6.0
# From MPEC 2022-K19
90P/Gehrels,e,9.6490,13.2170,29.1015,6.051887,0.0662015,0.51113950,159.3300,01/25.0/2024,2000,g  8.5,6.0
# From MPEC 2023-VM5
91P/Russell,e,15.5990,243.5589,358.8689,3.907356,0.1276085,0.33184353,150.0000,01/25.0/2024,2000,g  7.5,6.0
# From MPEC 2014-J58
92P/Sanguin,e,19.4963,181.3780,163.8018,5.342833,0.0798081,0.66059347,258.9021,01/25.0/2024,2000,g 12.0,6.0
# From NK 2707
93P/Lovas,e,12.2046,339.5883,74.9325,4.377555,0.1076110,0.61396750,270.8111,01/25.0/2024,2000,g  9.0,4.0
# From MPEC 2023_O39
94P/Russell,e,6.1879,70.8519,92.4081,3.510609,0.1498409,0.36565717,37.3026,01/25.0/2024,2000,g  9.0,6.0
# From MPC 75717
95P/Chiron,e,6.9225,209.1993,339.4228,13.71094,0.0194135,0.37668893,199.6458,01/25.0/2024,2000,g  6.5,2.0
# From MPEC 2023-N01
96P/Machholz,e,57.5362,93.9540,14.7433,3.030785,0.1867976,0.96161594,67.0417,01/25.0/2024,2000,g 13.0,4.8
# From MPC106348
96P-B/Machholz,e,57.5048,14.7260,93.9509,3.030171,0.1868544,0.96161955,67.0628,01/25.0/2024,2000,g 13.0,4.8
# From MPC103849
96P-C/Machholz,e,58.5311,94.3495,15.5380,3.011920,0.1885553,0.95889850,359.8715,07/14.0/2012,2000,g  9.0,4.0
# From MPEC 2022-C56
97P/Metcalf-Brewington,e,17.9489,184.1187,230.0454,4.765784,0.0947333,0.46030430,67.0771,01/25.0/2024,2000,g  5.5,6.0
# From MPEC 2021-W31
98P/Takamizawa,e,10.5691,114.6425,157.7389,3.790398,0.1335601,0.56254772,149.0386,01/25.0/2024,2000,g  9.0,8.0
# From MPEC 2024-A43
99P/Kowal,e,4.3395,28.0958,174.6937,6.097676,0.0654572,0.22854013,42.8510,01/25.0/2024,2000,g  4.5,6.0
# From MPEC 2023-OA6
100P/Hartley,e,25.5673,37.6857,181.9636,3.430562,0.1551158,0.41172510,82.5490,01/25.0/2024,2000,g  9.0,8.0
# From MPEC 2022-K19
101P/Chernykh,e,5.0495,116.2406,277.7953,5.812842,0.0703269,0.59629077,103.5591,01/25.0/2024,2000,g 10.0,4.8
# From MPC105241
101P-B/Chernykh,e,5.0499,278.5582,115.4803,5.828329,0.0700468,0.59650221,101.9011,01/25.0/2024,2000,g  9.0,4.0
# From MPEC 2022-C56
102P/Shoemaker,e,25.8731,339.4114,20.6578,3.818210,0.1321035,0.45669999,144.9839,01/25.0/2024,2000,g  6.5,8.0
# From MPEC 2024-B57
103P/Hartley,e,13.6107,219.7495,181.2992,3.474517,0.1521817,0.69374574,15.9017,01/25.0/2024,2000,g  8.5,8.0
# From MPEC 2023-G31
104P/Kowal,e,5.7032,207.2080,227.2552,3.208659,0.1714821,0.66584298,127.4318,01/25.0/2024,2000,g 16.0,4.0
# From MPEC 2024-B57
105P/SingerBrewster,e,9.1683,192.3971,46.3705,3.471165,0.1524022,0.40888547,304.5458,01/25.0/2024,2000,g 11.5,6.0
# From MPEC 2023-UR6
106P/Schuster,e,19.5405,48.8621,353.7633,3.766850,0.1348145,0.59392979,119.8447,01/25.0/2024,2000,g 14.0,4.8
# From MPEC 2015-M77
107P/Wilson-Harrington,e,2.7986,266.7554,95.4875,2.625144,0.2317258,0.63145835,120.1254,01/25.0/2024,2000,g  9.0,4.0
# From MPEC 2022-P82
108P/Ciffreo,e,11.4362,50.2975,354.4941,3.742321,0.1361421,0.55608760,117.9839,01/25.0/2024,2000,g  8.0,12.0
# From  105, 420
109P/Swift-Tuttle,e,113.5109,139.4088,153.1971,26.21137,0.0073446,0.96255969,83.4332,01/25.0/2024,2000,g  4.0,6.0
# From MPEC 2023-KD6
110P/Hartley,e,11.7069,287.4951,167.4944,3.603942,0.1440580,0.31895923,119.3286,01/25.0/2024,2000,g  1.0,12.0
# From MPC 75718
111P/Helin-Roman-Crockett,e,4.2258,89.8145,1.1826,4.152039,0.1164963,0.10709106,110.8272,01/25.0/2024,2000,g  5.0,8.0
# From MPEC 2021-S45
112P/Urata-Niijima,e,24.2104,31.8353,21.4935,3.523740,0.1490041,0.59081775,215.3783,01/25.0/2024,2000,g 14.0,6.0
# From MPEC 2023-VM5
113P/Spitaler,e,5.2880,306.6616,115.6192,3.693998,0.1388223,0.41994869,83.6151,01/25.0/2024,2000,g 13.5,4.0
# From MPEC 2023-A50
114P/Wiseman-Skiff,e,18.2994,271.0233,172.7615,3.541829,0.1478641,0.55586826,217.4646,01/25.0/2024,2000,g 11.5,6.0
# From MPEC 2023-J29
115P/Maury,e,11.6770,176.0140,120.9759,4.272189,0.1116165,0.51758932,142.3854,01/25.0/2024,2000,g 10.5,6.0
# From MPEC 2023-VM5
116P/Wild,e,3.6034,20.9726,173.2136,3.487833,0.1513110,0.37031770,84.3289,01/25.0/2024,2000,g  2.5,10.0
# From MPEC 2024-B57
117P/Helin-Roman-Alu,e,8.7054,58.8148,223.4319,4.091976,0.1190706,0.25606073,67.1667,01/25.0/2024,2000,g  2.5,8.0
# From MPEC 2023-XP6
118P/Shoemaker-Levy,e,10.0904,142.0876,314.8774,3.348083,0.1608829,0.45368659,68.6268,01/25.0/2024,2000,g 12.0,4.0
# From MPEC 2024-A43
119P/Parker-Hartley,e,7.3923,104.5606,322.1617,3.807075,0.1326835,0.38837377,70.4198,01/25.0/2024,2000,g  3.5,8.0
# From MPEC 2022-CN4
120P/Mueller,e,8.4874,358.7240,36.7010,3.967667,0.1247100,0.37475219,123.7387,01/25.0/2024,2000,g 12.0,4.0
# From MPEC 2024-B57
121P/Shoemaker-Holt,e,20.1632,94.1128,11.7279,4.585409,0.1003776,0.18645041,21.0596,01/25.0/2024,2000,g  6.5,8.0
# From MPC 75718
122P/de Vico,e,85.9008,79.7192,12.9915,17.62736,0.0133175,0.96244206,137.9298,01/25.0/2024,2000,g  7.5,5.2
# From MPEC 2021-F20
123P/West-Hartley,e,15.2797,45.9039,104.0287,3.881339,0.1288937,0.44428451,234.7471,01/25.0/2024,2000,g 12.2,4.0
# From MPEC 2023-T65
124P/Mrkos,e,31.4637,0.0784,185.1935,3.372544,0.1591357,0.48696926,219.8367,01/25.0/2024,2000,g 13.5,2.8
# From MPEC 2024-B57
125P/Spacewatch,e,9.9848,153.1511,87.1401,3.129365,0.1780409,0.51214034,352.4696,01/25.0/2024,2000,g 13.0,6.0
# From MPEC 2024-B57
126P/IRAS,e,45.8708,357.8645,356.5834,5.635138,0.0736796,0.69647754,15.0089,01/25.0/2024,2000,g  6.0,8.0
# From MPEC 2024-AF0
127P/Holt-Olmstead,e,14.3007,13.6072,6.3002,3.452657,0.1536293,0.35931730,81.8211,01/25.0/2024,2000,g 11.0,6.0
# From MPC 89014
128P/Shoemaker-Holt,e,4.3704,214.3406,210.3440,4.485777,0.1037403,0.32233142,266.2901,01/25.0/2024,2000,g  8.5,4.0
# From MPEC 2024-B57
129P/Shoemaker-Levy,e,3.4423,184.8609,307.5265,4.291326,0.1108707,0.08551058,46.5958,01/25.0/2024,2000,g 11.0,4.0
# From MPEC 2024-B57
130P/McNaught-Hughes,e,6.0636,70.1786,246.1245,3.381520,0.1585025,0.46089539,347.1810,01/25.0/2024,2000,g 10.0,6.0
# From MPC102101
131P/Mueller,e,7.3607,214.1780,179.1093,3.677243,0.1397721,0.34491145,254.8529,01/25.0/2024,2000,g 11.0,4.0
# From MPEC 2022-TD3
132P/Helin-Roman-Alu,e,5.3818,174.0323,216.4095,3.890210,0.1284531,0.56460997,103.1160,01/25.0/2024,2000,g 11.0,6.0
# From MPC 94676
133P/Elst-Pizarro,e,1.3897,160.1016,131.9165,3.164694,0.1750679,0.15609257,341.3860,01/25.0/2024,2000,g 15.4,2.0
# From MPC 89012
134P/Kowal-Vavrova,e,4.3350,202.0125,18.7857,6.266960,0.0628230,0.58508181,223.0768,01/25.0/2024,2000,g 11.5,4.0
# From MPEC 2022-OB6
135P/Shoemaker-Levy,e,6.0639,213.0193,22.3876,3.800307,0.1330381,0.29430933,87.4922,01/25.0/2024,2000,g  7.0,8.0
# From MPEC 2022-K19
136P/Mueller,e,9.4276,137.4971,225.1455,4.186594,0.1150569,0.29328969,320.3990,01/25.0/2024,2000,g 11.0,4.0
# From MPEC 2023-J29
137P/Shoemaker-Levy,e,4.8601,232.9273,141.2118,4.522252,0.1024878,0.57362905,191.3062,01/25.0/2024,2000,g 11.0,4.0
# From MPEC 2016-U66
138P/Shoemaker-Levy,e,10.0954,309.2951,95.6164,3.619100,0.1431539,0.53160621,247.0311,01/25.0/2024,2000,g 15.0,6.0
# From MPEC 2020-HN5
139P/Vaisala-Oterma,e,2.3372,242.1798,165.8295,4.516409,0.1026867,0.24830068,229.1917,01/25.0/2024,2000,g  9.5,4.0
# From MPEC 2015-E14
140P/Bowell-Skiff,e,3.7979,343.3156,172.4067,6.405913,0.0607900,0.69601310,188.7135,01/25.0/2024,2000,g 11.5,6.0
# From MPEC 2022-K19
141P/Machholz,e,13.9547,241.8108,153.5996,3.057561,0.1843493,0.73609044,209.0574,01/25.0/2024,2000,g 12.0,12.0
# From MPEC 2015-KD9
141P-A/Machholz,e,13.9439,153.5575,241.8667,3.057695,0.1843371,0.73608629,209.0110,01/25.0/2024,2000,g 12.0,12.0
# From MPC 24216
141P-B/Machholz,e,13.9878,153.6331,241.7560,3.056086,0.1844827,0.73584412,210.3631,01/25.0/2024,2000,g  9.0,4.0
# From MPC 37026
141P-D/Machholz,e,13.8360,153.2845,242.1143,3.066145,0.1835756,0.73704152,205.0038,01/25.0/2024,2000,g  9.0,4.0
# From MPEC 2015-R12
141P-E/Machholz,e,12.8152,246.1856,149.2667,3.012914,0.1884620,0.75023267,359.9529,09/19.0/1994,2000,g  9.0,4.0
# From MPEC 2015-R12
